STARLINK-37440          
1 69189U 26114H   26165.12743323  .00194782  00000+0  96506-3 0  9991
2 69189  53.1584 217.1687 0001013  58.0738 302.0383 15.80945733  4298
STARLINK-37282          
1 69190U 26114J   26165.16711110  .00142135  00000+0  80707-3 0  9997
2 69190  53.1584 217.4363 0001562  62.9874 297.1306 15.78104933  4293
STARLINK-37422          
1 69191U 26114K   26164.64895168  .00292068  00000+0  14269-2 0  9996
2 69191  53.1576 219.8873 0001378  50.7013 309.4132 15.80978335  4216
STARLINK-37424          
1 69192U 26114L   26165.16722014  .00197418  00000+0  11116-2 0  9995
2 69192  53.1579 217.4373 0001884  38.6034 321.5122 15.78117071  4290
STARLINK-36666          
1 69193U 26114M   26165.00002315  .00073457  00000+0  37330-3 0  9997
2 69193  53.1576 218.1309 0001063  91.0304 107.0057 15.80829294  4303
STARLINK-37355          
1 69194U 26114N   26165.15417499  .00293992  00000+0  14385-2 0  9999
2 69194  53.1573 217.3509 0000835  65.3042 294.8068 15.80939719  4292
STARLINK-37166          
1 69195U 26114P   26165.15267646  .00153536  00000+0  76641-3 0  9990
2 69195  53.1576 217.3402 0002106  25.2490 334.8635 15.80907799  4291
STARLINK-36933          
1 69196U 26114Q   26165.15341449  .00169373  00000+0  84336-3 0  9991
2 69196  53.1576 217.3452 0000995  71.3972 288.7159 15.80913515  4299
STARLINK-37419          
1 69197U 26114R   26165.15192470  .00284208  00000+0  13901-2 0  9994
2 69197  53.1573 217.3355 0001335  62.1635 297.9523 15.80974759  4296
STARLINK-37321          
1 69198U 26114S   26165.15117354  .00209029  00000+0  10349-2 0  9994
2 69198  53.1577 217.3298 0001320  79.0295 281.0877 15.80920785  4296
STARLINK-37406          
1 69199U 26114T   26165.15042524  .00179320  00000+0  89104-3 0  9997
2 69199  53.1576 217.3250 0001529  49.8366 310.2790 15.80928466  4292
STARLINK-37761          
1 69200U 26114U   26165.14967455  .00166117  00000+0  82666-3 0  9994
2 69200  53.1576 217.3195 0001148  48.4233 311.6888 15.80936352  4294
STARLINK-37754          
1 69201U 26114V   26165.14873051  .00190332  00000+0  94381-3 0  9996
2 69201  53.1575 217.3130 0001131  47.5180 312.5938 15.80940544  4290
STARLINK-37649          
1 69202U 26114W   26165.14817275  .00161939  00000+0  80622-3 0  9997
2 69202  53.1576 217.3094 0001135  60.6942 299.4194 15.80939785  4299
STARLINK-37604          
1 69203U 26114X   26165.14742328  .00198721  00000+0  98416-3 0  9993
2 69203  53.1577 217.3048 0001136  49.4643 310.6479 15.80943533  4292
STARLINK-37669          
1 69204U 26114Y   26165.14667267  .00143278  00000+0  71559-3 0  9998
2 69204  53.1577 217.2990 0001181  44.2310 315.8807 15.80930102  4292
STARLINK-37691          
1 69205U 26114Z   26165.15573812  .00190768  00000+0  10768-2 0  9992
2 69205  53.1581 217.3589 0001158  55.5598 304.5533 15.78084224  4293
STARLINK-37671          
1 69206U 26114AA  26165.16668980  .00067289  00000+0  38884-3 0  9996
2 69206  53.1589 217.2188 0001561  61.4110  42.5109 15.78025415  4330
STARLINK-37647          
1 69207U 26114AB  26165.14592299  .00189669  00000+0  94043-3 0  9990
2 69207  53.1579 217.2943 0001533  51.8155 308.3005 15.80944523  4296
STARLINK-37562          
1 69208U 26114AC  26165.15046791  .00147430  00000+0  83651-3 0  9996
2 69208  53.1589 217.3245 0001292  61.2744 298.8407 15.78104098  4296
STARLINK-37682          
1 69209U 26114AD  26165.14292333  .00236525  00000+0  11645-2 0  9998
2 69209  53.1578 217.2734 0001535  58.3649 301.7523 15.80962965  4299
STARLINK-37402          
1 69210U 26114AE  26165.14217266  .00194257  00000+0  96226-3 0  9996
2 69210  53.1578 217.2687 0001484  59.6153 300.5016 15.80951715  4290
STARLINK-37613          
1 69211U 26115A   26165.16668980 -.00067678  00000+0 -12503-2 0  9996
2 69211  97.2835 182.2532 0001148  76.3916 309.4459 15.49259705  4201
STARLINK-37713          
1 69212U 26115B   26165.16668980 -.02519461  00000+0 -43174-1 0  9998
2 69212  97.2838 182.3750 0001598 114.3284 195.6576 15.55111717  4200
STARLINK-37716          
1 69213U 26115C   26165.16668980 -.02648425  00000+0 -37956-1 0  9993
2 69213  97.2840 182.4164 0001426  51.8437   1.4612 15.60065029  4204
STARLINK-37620          
1 69214U 26115D   26165.16668980 -.00012393  00000+0 -22664-3 0  9993
2 69214  97.2836 182.2174 0000609  78.8336 227.5481 15.49180353  4208
STARLINK-37700          
1 69215U 26115E   26165.21433573  .00052813  00000+0  96550-3 0  9992
2 69215  97.2834 182.1764 0001248  91.7907 268.3487 15.49210590  4193
STARLINK-37766          
1 69216U 26115F   26165.16668980 -.02525245  00000+0 -30074-1 0  9994
2 69216  97.2843 182.4455 0001739  63.1463  52.6634 15.64593263  4207
STARLINK-37763          
1 69217U 26115G   26165.16668980 -.02445183  00000+0 -35829-1 0  9990
2 69217  97.2839 182.4145 0001061  79.5879 320.7816 15.59163459  4204
STARLINK-37724          
1 69218U 26115H   26165.16668980 -.02625692  00000+0 -26417-1 0  9999
2 69218  97.2840 182.4676 0001609  76.4358  96.4051 15.68891611  4208
