OBJECT_NAME,OBJECT_ID,EPOCH,MEAN_MOTION,ECCENTRICITY,INCLINATION,RA_OF_ASC_NODE,ARG_OF_PERICENTER,MEAN_ANOMALY,EPHEMERIS_TYPE,CLASSIFICATION_TYPE,NORAD_CAT_ID,ELEMENT_SET_NO,REV_AT_EPOCH,BSTAR,MEAN_MOTION_DOT,MEAN_MOTION_DDOT
STARLINK-37440,2026-114H,2026-06-14T03:03:30.231072,15.80945733,.0001013,53.1584,217.1687,58.0738,302.0383,0,U,69189,999,429,.96506E-3,.194782E-2,0
STARLINK-37282,2026-114J,2026-06-14T04:00:38.399040,15.78104933,.0001562,53.1584,217.4363,62.9874,297.1306,0,U,69190,999,429,.80707E-3,.142135E-2,0
STARLINK-37422,2026-114K,2026-06-13T15:34:29.425152,15.80978335,.00013785,53.1576,219.8873,50.7013,309.4132,0,U,69191,999,421,.14268784E-2,.292068E-2,0
STARLINK-37424,2026-114L,2026-06-14T04:00:47.820096,15.78117071,.0001884,53.1579,217.4373,38.6034,321.5122,0,U,69192,999,429,.11116E-2,.197418E-2,0
STARLINK-36666,2026-114M,2026-06-14T00:00:02.000160,15.80829294,.0001063,53.1576,218.1309,91.0304,107.0057,0,U,69193,999,430,.3733E-3,.73457E-3,0
STARLINK-37355,2026-114N,2026-06-14T03:42:00.719136,15.80939719,.0000835,53.1573,217.3509,65.3042,294.8068,0,U,69194,999,429,.14385E-2,.293992E-2,0
STARLINK-37166,2026-114P,2026-06-14T03:39:51.246144,15.80907799,.0002106,53.1576,217.3402,25.2490,334.8635,0,U,69195,999,429,.76641E-3,.153536E-2,0
STARLINK-36933,2026-114Q,2026-06-14T03:40:55.011936,15.80913515,.0000995,53.1576,217.3452,71.3972,288.7159,0,U,69196,999,429,.84336E-3,.169373E-2,0
STARLINK-37419,2026-114R,2026-06-14T03:38:46.294080,15.80974759,.0001335,53.1573,217.3355,62.1635,297.9523,0,U,69197,999,429,.13901E-2,.284208E-2,0
STARLINK-37321,2026-114S,2026-06-14T03:37:41.393856,15.80920785,.000132,53.1577,217.3298,79.0295,281.0877,0,U,69198,999,429,.10349E-2,.209029E-2,0
STARLINK-37406,2026-114T,2026-06-14T03:36:36.740736,15.80928466,.0001529,53.1576,217.3250,49.8366,310.2790,0,U,69199,999,429,.89104E-3,.17932E-2,0
STARLINK-37761,2026-114U,2026-06-14T03:35:31.881120,15.80936352,.0001148,53.1576,217.3195,48.4233,311.6888,0,U,69200,999,429,.82666E-3,.166117E-2,0
STARLINK-37754,2026-114V,2026-06-14T03:34:10.316064,15.80940544,.0001131,53.1575,217.3130,47.5180,312.5938,0,U,69201,999,429,.94381E-3,.190332E-2,0
STARLINK-37649,2026-114W,2026-06-14T03:33:22.125600,15.80939785,.0001135,53.1576,217.3094,60.6942,299.4194,0,U,69202,999,429,.80622E-3,.161939E-2,0
STARLINK-37604,2026-114X,2026-06-14T03:32:17.371392,15.80943533,.0001136,53.1577,217.3048,49.4643,310.6479,0,U,69203,999,429,.98416E-3,.198721E-2,0
STARLINK-37669,2026-114Y,2026-06-14T03:31:12.518688,15.80930102,.0001181,53.1577,217.2990,44.2310,315.8807,0,U,69204,999,429,.71559E-3,.143278E-2,0
STARLINK-37691,2026-114Z,2026-06-14T03:44:15.773568,15.78084224,.0001158,53.1581,217.3589,55.5598,304.5533,0,U,69205,999,429,.10768E-2,.190768E-2,0
STARLINK-37671,2026-114AA,2026-06-14T04:00:01.998720,15.78025415,.0001561,53.1589,217.2188,61.4110,42.5109,0,U,69206,999,433,.38884E-3,.67289E-3,0
STARLINK-37647,2026-114AB,2026-06-14T03:30:07.746336,15.80944523,.0001533,53.1579,217.2943,51.8155,308.3005,0,U,69207,999,429,.94043E-3,.189669E-2,0
STARLINK-37562,2026-114AC,2026-06-14T03:36:40.427424,15.78104098,.0001292,53.1589,217.3245,61.2744,298.8407,0,U,69208,999,429,.83651E-3,.14743E-2,0
STARLINK-37682,2026-114AD,2026-06-14T03:25:48.575712,15.80962965,.0001535,53.1578,217.2734,58.3649,301.7523,0,U,69209,999,429,.11645E-2,.236525E-2,0
STARLINK-37402,2026-114AE,2026-06-14T03:24:43.717824,15.80951715,.0001484,53.1578,217.2687,59.6153,300.5016,0,U,69210,999,429,.96226E-3,.194257E-2,0
STARLINK-37613,2026-115A,2026-06-14T04:00:01.998720,15.49259705,.0001148,97.2835,182.2532,76.3916,309.4459,0,U,69211,999,420,-.12503E-2,-.67678E-3,0
STARLINK-37713,2026-115B,2026-06-14T04:00:01.998720,15.55111717,.0001598,97.2838,182.3750,114.3284,195.6576,0,U,69212,999,420,-.43174E-1,-.2519461E-1,0
STARLINK-37716,2026-115C,2026-06-14T04:00:01.998720,15.60065029,.0001426,97.2840,182.4164,51.8437,1.4612,0,U,69213,999,420,-.37956E-1,-.2648425E-1,0
STARLINK-37620,2026-115D,2026-06-14T04:00:01.998720,15.49180353,.0000609,97.2836,182.2174,78.8336,227.5481,0,U,69214,999,420,-.22664E-3,-.12393E-3,0
STARLINK-37700,2026-115E,2026-06-14T05:08:38.607072,15.49210590,.0001248,97.2834,182.1764,91.7907,268.3487,0,U,69215,999,419,.9655E-3,.52813E-3,0
STARLINK-37766,2026-115F,2026-06-14T04:00:01.998720,15.64593263,.0001739,97.2843,182.4455,63.1463,52.6634,0,U,69216,999,420,-.30074E-1,-.2525245E-1,0
STARLINK-37763,2026-115G,2026-06-14T04:00:01.998720,15.59163459,.0001061,97.2839,182.4145,79.5879,320.7816,0,U,69217,999,420,-.35829E-1,-.2445183E-1,0
STARLINK-37724,2026-115H,2026-06-14T04:00:01.998720,15.68891611,.0001609,97.2840,182.4676,76.4358,96.4051,0,U,69218,999,420,-.26417E-1,-.2625692E-1,0
